{
  "type": "FeatureCollection",
  "features": [
    {
      "type": "Feature",
      "properties": {
        "norad_id": 66863,
        "name": "STARLINK-36134",
        "group": "last-30-days",
        "lat": -21.007964020677882,
        "lon": -113.29998983721438,
        "alt_km": 415.4174161847295,
        "timestamp": "2025-12-25T22:42:15.709771+00:00",
        "meta_object_name": "STARLINK-36134",
        "meta_object_id": "2025-281R",
        "meta_epoch": "2025-12-25T18:00:02.000160",
        "meta_mean_motion": 15.51794231,
        "meta_eccentricity": 9.75e-05,
        "meta_inclination": 43.0005,
        "meta_ra_of_asc_node": 43.5112,
        "meta_arg_of_pericenter": 292.3313,
        "meta_mean_anomaly": 263.3577,
        "meta_ephemeris_type": 0,
        "meta_classification_type": "U",
        "meta_norad_cat_id": 66863,
        "meta_element_set_no": 999,
        "meta_rev_at_epoch": 348,
        "meta_bstar": -0.028716,
        "meta_mean_motion_dot": -0.0158476,
        "meta_mean_motion_ddot": 0,
        "tle_line1": "1 66863U 25281R   25359.75002315 -.01584760  00000+0 -28716-1 0  9991",
        "tle_line2": "2 66863  43.0005  43.5112 0000975 292.3313 263.3577 15.51794231  3489"
      },
      "geometry": {
        "type": "Point",
        "coordinates": [
          -113.29998983721438,
          -21.007964020677882
        ]
      }
    },
    {
      "type": "Feature",
      "properties": {
        "norad_id": 66864,
        "name": "STARLINK-36070",
        "group": "last-30-days",
        "lat": -22.196184571778,
        "lon": -111.67598461177573,
        "alt_km": 415.1700937628675,
        "timestamp": "2025-12-25T22:42:15.709781+00:00",
        "meta_object_name": "STARLINK-36070",
        "meta_object_id": "2025-281S",
        "meta_epoch": "2025-12-25T18:00:02.000160",
        "meta_mean_motion": 15.51858726,
        "meta_eccentricity": 0.0001069,
        "meta_inclination": 43.0003,
        "meta_ra_of_asc_node": 43.5054,
        "meta_arg_of_pericenter": 271.8883,
        "meta_mean_anomaly": 285.7033,
        "meta_ephemeris_type": 0,
        "meta_classification_type": "U",
        "meta_norad_cat_id": 66864,
        "meta_element_set_no": 999,
        "meta_rev_at_epoch": 351,
        "meta_bstar": -0.031244,
        "meta_mean_motion_dot": -0.01713115,
        "meta_mean_motion_ddot": 0,
        "tle_line1": "1 66864U 25281S   25359.75002315 -.01713115  00000+0 -31244-1 0  9990",
        "tle_line2": "2 66864  43.0003  43.5054 0001069 271.8883 285.7033 15.51858726  3511"
      },
      "geometry": {
        "type": "Point",
        "coordinates": [
          -111.67598461177573,
          -22.196184571778
        ]
      }
    },
    {
      "type": "Feature",
      "properties": {
        "norad_id": 66865,
        "name": "STARLINK-36117",
        "group": "last-30-days",
        "lat": -24.50674262252384,
        "lon": -108.36343706391351,
        "alt_km": 415.4535116359584,
        "timestamp": "2025-12-25T22:42:15.709791+00:00",
        "meta_object_name": "STARLINK-36117",
        "meta_object_id": "2025-281T",
        "meta_epoch": "2025-12-25T18:00:02.000160",
        "meta_mean_motion": 15.5182305,
        "meta_eccentricity": 0.0001251,
        "meta_inclination": 43.0003,
        "meta_ra_of_asc_node": 43.4965,
        "meta_arg_of_pericenter": 287.0732,
        "meta_mean_anomaly": 274.36,
        "meta_ephemeris_type": 0,
        "meta_classification_type": "U",
        "meta_norad_cat_id": 66865,
        "meta_element_set_no": 999,
        "meta_rev_at_epoch": 348,
        "meta_bstar": -0.029425,
        "meta_mean_motion_dot": -0.01621638,
        "meta_mean_motion_ddot": 0,
        "tle_line1": "1 66865U 25281T   25359.75002315 -.01621638  00000+0 -29425-1 0  9997",
        "tle_line2": "2 66865  43.0003  43.4965 0001251 287.0732 274.3600 15.51823050  3489"
      },
      "geometry": {
        "type": "Point",
        "coordinates": [
          -108.36343706391351,
          -24.50674262252384
        ]
      }
    },
    {
      "type": "Feature",
      "properties": {
        "norad_id": 66866,
        "name": "STARLINK-36126",
        "group": "last-30-days",
        "lat": -25.639038152834544,
        "lon": -106.65588601644176,
        "alt_km": 415.4048170053902,
        "timestamp": "2025-12-25T22:42:15.709801+00:00",
        "meta_object_name": "STARLINK-36126",
        "meta_object_id": "2025-281U",
        "meta_epoch": "2025-12-25T18:00:02.000160",
        "meta_mean_motion": 15.51852985,
        "meta_eccentricity": 0.0001008,
        "meta_inclination": 43.0002,
        "meta_ra_of_asc_node": 43.4911,
        "meta_arg_of_pericenter": 272.0659,
        "meta_mean_anomaly": 291.2788,
        "meta_ephemeris_type": 0,
        "meta_classification_type": "U",
        "meta_norad_cat_id": 66866,
        "meta_element_set_no": 999,
        "meta_rev_at_epoch": 351,
        "meta_bstar": -0.031142,
        "meta_mean_motion_dot": -0.01707739,
        "meta_mean_motion_ddot": 0,
        "tle_line1": "1 66866U 25281U   25359.75002315 -.01707739  00000+0 -31142-1 0  9994",
        "tle_line2": "2 66866  43.0002  43.4911 0001008 272.0659 291.2788 15.51852985  3510"
      },
      "geometry": {
        "type": "Point",
        "coordinates": [
          -106.65588601644176,
          -25.639038152834544
        ]
      }
    },
    {
      "type": "Feature",
      "properties": {
        "norad_id": 66867,
        "name": "STARLINK-36101",
        "group": "last-30-days",
        "lat": -26.750887147353737,
        "lon": -104.91485834707024,
        "alt_km": 415.3412912919366,
        "timestamp": "2025-12-25T22:42:15.709810+00:00",
        "meta_object_name": "STARLINK-36101",
        "meta_object_id": "2025-281V",
        "meta_epoch": "2025-12-25T18:00:02.000160",
        "meta_mean_motion": 15.51867511,
        "meta_eccentricity": 0.0001087,
        "meta_inclination": 43.0001,
        "meta_ra_of_asc_node": 43.4868,
        "meta_arg_of_pericenter": 264.9631,
        "meta_mean_anomaly": 300.2975,
        "meta_ephemeris_type": 0,
        "meta_classification_type": "U",
        "meta_norad_cat_id": 66867,
        "meta_element_set_no": 999,
        "meta_rev_at_epoch": 331,
        "meta_bstar": -0.031665,
        "meta_mean_motion_dot": -0.01734183,
        "meta_mean_motion_ddot": 0,
        "tle_line1": "1 66867U 25281V   25359.75002315 -.01734183  00000+0 -31665-1 0  9998",
        "tle_line2": "2 66867  43.0001  43.4868 0001087 264.9631 300.2975 15.51867511  3316"
      },
      "geometry": {
        "type": "Point",
        "coordinates": [
          -104.91485834707024,
          -26.750887147353737
        ]
      }
    },
    {
      "type": "Feature",
      "properties": {
        "norad_id": 66868,
        "name": "STARLINK-36108",
        "group": "last-30-days",
        "lat": -27.83835374328471,
        "lon": -103.14533333261977,
        "alt_km": 415.4435731812846,
        "timestamp": "2025-12-25T22:42:15.709820+00:00",
        "meta_object_name": "STARLINK-36108",
        "meta_object_id": "2025-281W",
        "meta_epoch": "2025-12-25T18:00:02.000160",
        "meta_mean_motion": 15.51876032,
        "meta_eccentricity": 0.0001084,
        "meta_inclination": 43.0001,
        "meta_ra_of_asc_node": 43.4813,
        "meta_arg_of_pericenter": 269.2513,
        "meta_mean_anomaly": 297.9242,
        "meta_ephemeris_type": 0,
        "meta_classification_type": "U",
        "meta_norad_cat_id": 66868,
        "meta_element_set_no": 999,
        "meta_rev_at_epoch": 331,
        "meta_bstar": -0.031977,
        "meta_mean_motion_dot": -0.0174988,
        "meta_mean_motion_ddot": 0,
        "tle_line1": "1 66868U 25281W   25359.75002315 -.01749880  00000+0 -31977-1 0  9995",
        "tle_line2": "2 66868  43.0001  43.4813 0001084 269.2513 297.9242 15.51876032  3318"
      },
      "geometry": {
        "type": "Point",
        "coordinates": [
          -103.14533333261977,
          -27.83835374328471
        ]
      }
    },
    {
      "type": "Feature",
      "properties": {
        "norad_id": 66869,
        "name": "STARLINK-36092",
        "group": "last-30-days",
        "lat": -28.903847394409713,
        "lon": -101.33758255845045,
        "alt_km": 415.4676110760529,
        "timestamp": "2025-12-25T22:42:15.709830+00:00",
        "meta_object_name": "STARLINK-36092",
        "meta_object_id": "2025-281X",
        "meta_epoch": "2025-12-25T18:00:02.000160",
        "meta_mean_motion": 15.51882066,
        "meta_eccentricity": 0.0001074,
        "meta_inclination": 43.0001,
        "meta_ra_of_asc_node": 43.4764,
        "meta_arg_of_pericenter": 266.5183,
        "meta_mean_anomaly": 302.5739,
        "meta_ephemeris_type": 0,
        "meta_classification_type": "U",
        "meta_norad_cat_id": 66869,
        "meta_element_set_no": 999,
        "meta_rev_at_epoch": 351,
        "meta_bstar": -0.032189,
        "meta_mean_motion_dot": -0.01760556,
        "meta_mean_motion_ddot": 0,
        "tle_line1": "1 66869U 25281X   25359.75002315 -.01760556  00000+0 -32189-1 0  9995",
        "tle_line2": "2 66869  43.0001  43.4764 0001074 266.5183 302.5739 15.51882066  3516"
      },
      "geometry": {
        "type": "Point",
        "coordinates": [
          -101.33758255845045,
          -28.903847394409713
        ]
      }
    }
  ]
}